{
    "links": {
        "self": "http://www.neowsapp.com/rest/v1/neo/3360546?api_key=iIulBulltgU6a56xZRHN4H3l9WmuAYTsLGpBGhQ2"
    },
    "id": "3360546",
    "neo_reference_id": "3360546",
    "name": "(2006 WC30)",
    "designation": "2006 WC30",
    "nasa_jpl_url": "http://ssd.jpl.nasa.gov/sbdb.cgi?sstr=3360546",
    "absolute_magnitude_h": 24.2,
    "estimated_diameter": {
        "kilometers": {
            "estimated_diameter_min": 0.0384197891,
            "estimated_diameter_max": 0.0859092601
        },
        "meters": {
            "estimated_diameter_min": 38.4197891064,
            "estimated_diameter_max": 85.9092601232
        },
        "miles": {
            "estimated_diameter_min": 0.0238729428,
            "estimated_diameter_max": 0.0533815229
        },
        "feet": {
            "estimated_diameter_min": 126.0491808919,
            "estimated_diameter_max": 281.8545369825
        }
    },
    "is_potentially_hazardous_asteroid": false,
    "close_approach_data": [
        {
            "close_approach_date": "2006-11-28",
            "close_approach_date_full": "2006-Nov-28 03:05",
            "epoch_date_close_approach": 1164683100000,
            "relative_velocity": {
                "kilometers_per_second": "9.4450028285",
                "kilometers_per_hour": "34002.0101824619",
                "miles_per_hour": "21127.5268269859"
            },
            "miss_distance": {
                "astronomical": "0.0158619663",
                "lunar": "6.1703048907",
                "kilometers": "2372916.372491781",
                "miles": "1474461.8621613378"
            },
            "orbiting_body": "Earth"
        }
    ],
    "orbital_data": {
        "orbit_id": "9",
        "orbit_determination_date": "2017-04-06 09:07:31",
        "first_observation_date": "2006-11-25",
        "last_observation_date": "2006-12-25",
        "data_arc_in_days": 30,
        "observations_used": 25,
        "orbit_uncertainty": "7",
        "minimum_orbit_intersection": ".00458565",
        "jupiter_tisserand_invariant": "3.104",
        "epoch_osculation": "2459000.5",
        "eccentricity": ".6227731320110798",
        "semi_major_axis": "2.599422212312136",
        "inclination": "4.974173928512431",
        "ascending_node_longitude": "72.23162613018773",
        "orbital_period": "1530.783122924678",
        "perihelion_distance": ".9805718997313372",
        "perihelion_argument": "13.62387990820916",
        "aphelion_distance": "4.218272524892935",
        "perihelion_time": "2458674.372994557791",
        "mean_anomaly": "76.69650925787749",
        "mean_motion": ".2351737451300041",
        "equinox": "J2000",
        "orbit_class": {
            "orbit_class_type": "APO",
            "orbit_class_description": "Near-Earth asteroid orbits which cross the Earth’s orbit similar to that of 1862 Apollo",
            "orbit_class_range": "a (semi-major axis) > 1.0 AU; q (perihelion) < 1.017 AU"
        }
    },
    "is_sentry_object": false
}